STARLINK-37701          
1 69306U 26119L   26168.83335647 -.02572316  00000+0 -30030-1 0  9999
2 69306  97.2841 194.6946 0001682  96.9960 172.1358 15.65162578  4155
STARLINK-37732          
1 69307U 26119M   26168.83335647 -.02585759  00000+0 -23493-1 0  9990
2 69307  97.2839 194.7190 0001496  95.5417 230.6159 15.71273312  4155
STARLINK-37689          
1 69308U 26119N   26168.83335647  .00057039  00000+0  10425-2 0  9994
2 69308  97.2850 194.5105 0000704  55.5267 138.4830 15.49199353  4151
STARLINK-37619          
1 69309U 26119P   26168.83335647 -.02573199  00000+0 -25785-1 0  9993
2 69309  97.2840 194.7166 0001488  95.8627 223.8483 15.68914793  4154
STARLINK-37794          
1 69310U 26119Q   26168.83335647 -.00709455  00000+0 -11135-1 0  9993
2 69310  97.2852 194.6561 0002079  90.0183  79.4393 15.56034973  4153
STARLINK-37795          
1 69311U 26119R   26168.83335647  .00046994  00000+0  86070-3 0  9996
2 69311  97.2848 194.5211 0000722  59.6987 159.7212 15.49185701  4156
STARLINK-37790          
1 69312U 26119S   26168.83335647 -.02544337  00000+0 -31870-1 0  9991
2 69312  97.2839 194.7001 0001653  98.8537 183.0583 15.63351812  4151
STARLINK-37676          
1 69313U 26119T   26168.83335647 -.02561147  00000+0 -22175-1 0  9998
2 69313  97.2840 194.7398 0001472  77.7475 296.4023 15.72373436  4153
STARLINK-37617          
1 69314U 26119U   26168.83335647 -.01305112  00000+0 -16255-1 0  9998
2 69314  97.2839 194.7038 0001778  90.4530 193.7769 15.62873400  4157
STARLINK-37627          
1 69315U 26119V   26168.83335647 -.02566493  00000+0 -31873-1 0  9994
2 69315  97.2838 194.7112 0001550  96.4087 211.2803 15.63603982  4153
STARLINK-37738          
1 69316U 26119W   26168.83335647 -.00720225  00000+0 -87902-2 0  9993
2 69316  97.2835 194.7014 0001271  86.4849 190.5699 15.62685972  4157
STARLINK-37799          
1 69317U 26119X   26168.83335647 -.02547213  00000+0 -19840-1 0  9995
2 69317  97.2839 194.7445 0001426  82.3215 303.7623 15.75419329  4109
STARLINK-37802          
1 69318U 26119Y   26168.83335647 -.01406967  00000+0 -13750-1 0  9999
2 69318  97.2842 194.7374 0001439  94.1759 271.9508 15.69125937  4158
STARLINK-37803          
1 69319U 26119Z   26168.83335647 -.01692581  00000+0 -26266-1 0  9995
2 69319  97.2851 194.6552 0001853  70.7699  95.8982 15.56931287  4102
GUOWANG TEST OBJECT A   
1 69320U 26120A   26158.46264223  .00009002  00000+0  24096-3 0  9996
2 69320  54.9967  71.5399 0009599 294.3963  65.6063 15.38803685  1198
GUOWANG TEST OBJECT B   
1 69321U 26120B   26168.78827615  .00008324  00000+0  22416-3 0  9993
2 69321  54.9985  25.0302 0010215 332.4856  27.5630 15.38717778  2789
GUOWANG TEST OBJECT C   
1 69322U 26120C   26158.91389784  .00016153  00000+0  41736-3 0  9993
2 69322  54.9968  69.4792 0009850 309.3319  50.6835 15.39284097  1266
GUOWANG TEST OBJECT D   
1 69323U 26120D   26168.78398490  .00001407  00000+0  45898-4 0  9994
2 69323  54.9971  25.0038 0011938 344.1411  15.9242 15.39038280  2787
QIANFAN-163             
1 69325U 26121A   26168.81446541  .00000019  00000+0  92695-5 0  9998
2 69325  89.0150 300.4520 0020165 187.0996 172.9877 13.59758161  2243
QIANFAN-164             
1 69326U 26121B   26162.41240743  .00000112  00000+0  13228-3 0  9992
2 69326  89.0157 301.0998 0019383 205.3125 154.7084 13.60355109  1373
SZ-22 MODULE            
1 69328U 25272C   26167.85575198  .00018201  00000+0  22051-3 0  9990
2 69328  41.4806 324.1231 0006297  83.9376 276.2180 15.60203853  3270
STARLINK-37733          
1 69329U 26122A   26168.79649560  .00152121  00000+0  77908-3 0  9996
2 69329  97.2825 198.2729 0000385 109.6766 250.4543 15.80874005  2253
STARLINK-37772          
1 69330U 26122B   26168.85467676 -.00221787  00000+0 -12346-2 0  9992
2 69330  97.2823 198.3472 0000431 289.3849  70.7372 15.79952089  2260
STARLINK-37768          
1 69331U 26122C   26168.83335647 -.01576307  00000+0 -13983-1 0  9992
2 69331  97.2840 198.3167 0001592  87.8705 132.4444 15.71295883  3409
STARLINK-37833          
1 69332U 26122D   26168.83335647 -.02539709  00000+0 -17085-1 0  9996
2 69332  97.2831 198.3305 0001798  91.8910 158.4047 15.78675542  3403
STARLINK-37818          
1 69333U 26122E   26168.85527538 -.01079028  00000+0 -73239-2 0  9997
2 69333  97.2821 198.3469 0000422 103.2877 256.8436 15.77336330  2263
STARLINK-37868          
1 69334U 26122F   26168.83335647 -.02507037  00000+0 -15268-1 0  9998
2 69334  97.2836 198.3448 0001762  99.1110 183.7942 15.80792096  3459
STARLINK-37877          
1 69335U 26122G   26168.83335647 -.02544620  00000+0 -25855-1 0  9991
2 69335  97.2839 198.3233 0001876  91.8731 142.0177 15.68532760  3453
STARLINK-37791          
1 69336U 26122H   26168.83335647 -.02486505  00000+0 -18193-1 0  9996
2 69336  97.2834 198.3462 0001545 101.7566 185.2497 15.76728397  3459
