OBJECT_NAME,OBJECT_ID,EPOCH,MEAN_MOTION,ECCENTRICITY,INCLINATION,RA_OF_ASC_NODE,ARG_OF_PERICENTER,MEAN_ANOMALY,EPHEMERIS_TYPE,CLASSIFICATION_TYPE,NORAD_CAT_ID,ELEMENT_SET_NO,REV_AT_EPOCH,BSTAR,MEAN_MOTION_DOT,MEAN_MOTION_DDOT
STARLINK-37701,2026-119L,2026-06-17T20:00:01.999008,15.65162578,.0001682,97.2841,194.6946,96.9960,172.1358,0,U,69306,999,415,-.3003E-1,-.2572316E-1,0
STARLINK-37732,2026-119M,2026-06-17T20:00:01.999008,15.71273312,.0001496,97.2839,194.7190,95.5417,230.6159,0,U,69307,999,415,-.23493E-1,-.2585759E-1,0
STARLINK-37689,2026-119N,2026-06-17T20:00:01.999008,15.49199353,.0000704,97.2850,194.5105,55.5267,138.4830,0,U,69308,999,415,.10425E-2,.57039E-3,0
STARLINK-37619,2026-119P,2026-06-17T20:00:01.999008,15.68914793,.0001488,97.2840,194.7166,95.8627,223.8483,0,U,69309,999,415,-.25785E-1,-.2573199E-1,0
STARLINK-37794,2026-119Q,2026-06-17T20:00:01.999008,15.56034973,.0002079,97.2852,194.6561,90.0183,79.4393,0,U,69310,999,415,-.11135E-1,-.709455E-2,0
STARLINK-37795,2026-119R,2026-06-17T20:00:01.999008,15.49185701,.0000722,97.2848,194.5211,59.6987,159.7212,0,U,69311,999,415,.8607E-3,.46994E-3,0
STARLINK-37790,2026-119S,2026-06-17T20:00:01.999008,15.63351812,.0001653,97.2839,194.7001,98.8537,183.0583,0,U,69312,999,415,-.3187E-1,-.2544337E-1,0
STARLINK-37676,2026-119T,2026-06-17T20:00:01.999008,15.72373436,.0001472,97.2840,194.7398,77.7475,296.4023,0,U,69313,999,415,-.22175E-1,-.2561147E-1,0
STARLINK-37617,2026-119U,2026-06-17T20:00:01.999008,15.62873400,.0001778,97.2839,194.7038,90.4530,193.7769,0,U,69314,999,415,-.16255E-1,-.1305112E-1,0
STARLINK-37627,2026-119V,2026-06-17T20:00:01.999008,15.63603982,.000155,97.2838,194.7112,96.4087,211.2803,0,U,69315,999,415,-.31873E-1,-.2566493E-1,0
STARLINK-37738,2026-119W,2026-06-17T20:00:01.999008,15.62685972,.0001271,97.2835,194.7014,86.4849,190.5699,0,U,69316,999,415,-.87902E-2,-.720225E-2,0
STARLINK-37799,2026-119X,2026-06-17T20:00:01.999008,15.75419329,.0001426,97.2839,194.7445,82.3215,303.7623,0,U,69317,999,410,-.1984E-1,-.2547213E-1,0
STARLINK-37802,2026-119Y,2026-06-17T20:00:01.999008,15.69125937,.0001439,97.2842,194.7374,94.1759,271.9508,0,U,69318,999,415,-.1375E-1,-.1406967E-1,0
STARLINK-37803,2026-119Z,2026-06-17T20:00:01.999008,15.56931287,.0001853,97.2851,194.6552,70.7699,95.8982,0,U,69319,999,410,-.26266E-1,-.1692581E-1,0
GUOWANG TEST OBJECT A,2026-120A,2026-06-07T11:06:12.288672,15.38803685,.00095994,54.9967,71.5399,294.3963,65.6063,0,U,69320,999,119,.24095813E-3,.9002E-4,0
GUOWANG TEST OBJECT B,2026-120B,2026-06-17T18:55:07.059360,15.38717778,.0010215,54.9985,25.0302,332.4856,27.5630,0,U,69321,999,278,.22416E-3,.8324E-4,0
GUOWANG TEST OBJECT C,2026-120C,2026-06-07T21:56:00.773376,15.39284097,.00098504,54.9968,69.4792,309.3319,50.6835,0,U,69322,999,126,.41735581E-3,.16153E-3,0
GUOWANG TEST OBJECT D,2026-120D,2026-06-17T18:48:56.295360,15.39038280,.0011938,54.9971,25.0038,344.1411,15.9242,0,U,69323,999,278,.45898E-4,.1407E-4,0
QIANFAN-163,2026-121A,2026-06-17T19:32:49.811424,13.59758161,.0020165,89.0150,300.4520,187.0996,172.9877,0,U,69325,999,224,.92695E-5,.19E-6,0
QIANFAN-164,2026-121B,2026-06-11T09:53:52.001952,13.60355109,.0019383,89.0157,301.0998,205.3125,154.7084,0,U,69326,999,137,.13228E-3,.112E-5,0
SZ-22 MODULE,2025-272C,2026-06-16T20:32:16.971072,15.60203853,.00062974,41.4806,324.1231,83.9376,276.2180,0,U,69328,999,327,.22050625E-3,.18201E-3,0
STARLINK-37733,2026-122A,2026-06-17T19:06:57.219840,15.80874005,.0000385,97.2825,198.2729,109.6766,250.4543,0,U,69329,999,225,.77908E-3,.152121E-2,0
STARLINK-37772,2026-122B,2026-06-17T20:30:44.072064,15.79952089,.0000431,97.2823,198.3472,289.3849,70.7372,0,U,69330,999,226,-.12346E-2,-.221787E-2,0
STARLINK-37768,2026-122C,2026-06-17T20:00:01.999008,15.71295883,.0001592,97.2840,198.3167,87.8705,132.4444,0,U,69331,999,340,-.13983E-1,-.1576307E-1,0
STARLINK-37833,2026-122D,2026-06-17T20:00:01.999008,15.78675542,.0001798,97.2831,198.3305,91.8910,158.4047,0,U,69332,999,340,-.17085E-1,-.2539709E-1,0
STARLINK-37818,2026-122E,2026-06-17T20:31:35.792832,15.77336330,.0000422,97.2821,198.3469,103.2877,256.8436,0,U,69333,999,226,-.73239E-2,-.1079028E-1,0
STARLINK-37868,2026-122F,2026-06-17T20:00:01.999008,15.80792096,.0001762,97.2836,198.3448,99.1110,183.7942,0,U,69334,999,345,-.15268E-1,-.2507037E-1,0
STARLINK-37877,2026-122G,2026-06-17T20:00:01.999008,15.68532760,.0001876,97.2839,198.3233,91.8731,142.0177,0,U,69335,999,345,-.25855E-1,-.254462E-1,0
STARLINK-37791,2026-122H,2026-06-17T20:00:01.999008,15.76728397,.0001545,97.2834,198.3462,101.7566,185.2497,0,U,69336,999,345,-.18193E-1,-.2486505E-1,0
